,name,latitude,longitude,address
0,강남구보건소,37.5162581,127.042214,"668 Seolleung-ro, Samseong 2(i)-dong, Gangnam-gu, Seoul, South Korea"
1,삼성서울병원,37.4881568,127.0855952,"81 Irwon-ro, Irwon-dong, Gangnam-gu, Seoul, South Korea"
2,연세대학교의과대학강남세브란스병원,37.4927454,127.0463152,"211 Eonju-ro, Dogok 1(il)-dong, Gangnam-gu, Seoul, South Korea"
3,강동경희대학교의대병원,37.5534841,127.1576468,"892 Dongnam-ro, Sangil-dong, Gangdong-gu, Seoul, South Korea"
4,강동구보건소,37.5292365,127.1255395,"South Korea, Seoul, Gangdong-gu, Seongnae 1(il)-dong, 성내로 45"
5,성심의료재단강동성심병원,37.5361787,127.135423,"150 Seongan-ro, Gil-dong, Gangdong-gu, Seoul, South Korea"
6,한국보훈복지의료공단중앙보훈병원,37.5305849,127.1480435,"53 Jinhwangdo-ro 61-gil, Dunchon 2(i)-dong, Gangdong-gu, Seoul, South Korea"
7,강북구보건소,37.63208340000001,127.0387673,"897 Hancheon-ro, Beon 2(i)-dong, Gangbuk-gu, Seoul, South Korea"
8,강서구보건소,37.5496053,126.868277,"561 Gonghang-daero, Yeomchang-dong, Gangseo-gu, 서울특별시 South Korea"
9,이화여자대학교의과대학부속서울병원,37.5371113,126.8855845,"911-1 Mok-dong, Yangcheon-gu, Seoul, South Korea"
10,관악구보건소,37.478434,126.9511135,"145 Gwanak-ro, Bongcheon-dong, Gwanak-gu, Seoul, South Korea"
11,관악구보건소 신사동 코로나19 건강상담소,37.4842166,126.9325109,"1636 Nambusunhwan-ro, Seowon-dong, Gwanak-gu, Seoul, South Korea"
12,에이치플러스양지병원,37.5383735,127.0824046,"777 Jayang 1(il)-dong, Gwangjin-gu, Seoul, South Korea"
13,광진구보건소,37.5383735,127.0824046,"777 Jayang 1(il)-dong, Gwangjin-gu, Seoul, South Korea"
14,광진구보건소 자양보건지소,37.5408245,127.0722209,"120-1 Neungdong-ro, Hwayang-dong, Gwangjin-gu, Seoul, South Korea"
15,건국대학교병원,37.48252799999999,126.889716,"35 Uma 2-gil, Garibong-dong, Guro-gu, Seoul, South Korea"
16,구로구보건소,37.4922173,126.8849478,"148 Gurodong-ro, Guro-dong, Guro-gu, Seoul, South Korea"
17,구로구보건소 가리봉동선별진료소,37.499638,126.8663721,"76-189 Gocheok-dong, Guro-gu, Seoul, South Korea"
18,고려대학교의과대학부속구로병원,37.4570498,126.8959514,"70 Siheung-daero 73-gil, Siheung-dong, Geumcheon-gu, Seoul, South Korea"
19,구로성심병원,37.4556729,126.9005925,"882-31 Siheung 1(il)-dong, Geumcheon-gu, Seoul, South Korea"
20,금천구보건소,37.6545591,127.056999,"437 Nohae-ro, Sanggye-dong, Nowon-gu, Seoul, South Korea"
21,독산보건분소,37.636417,127.069959,"68 Hangeulbiseong-ro, Hagye-dong, Nowon-gu, Seoul, South Korea"
22,희명병원,37.6485082,127.0631429,"1342 Dongil-ro, Sanggye 6(yuk).7(chil)-dong, Nowon-gu, Seoul, South Korea"
23,노원구보건소,37.6579331,127.0387799,"117 Banghak-ro 3-gil, Ssangmun-dong, Dobong-gu, Seoul, South Korea"
24,노원을지대학교병원,37.5745905,127.0401577,"145 Cheonho-daero, Yongdu-dong, Dongdaemun-gu, Seoul, South Korea"
25,인제대학교상계백병원,37.593894,127.051323,"23 Kyungheedae-ro, Hoegi-dong, Dongdaemun-gu, Seoul, South Korea"
26,도봉구보건소,37.58789489999999,127.0653215,"82 Mangu-ro, Hwigyeong 1(il)-dong, Dongdaemun-gu, Seoul, South Korea"
27,동대문구보건소,37.57534,127.03152,"124 Muhak -ro, Yongdu-dong, Dongdaemun-gu, Seoul, South Korea"
28,경희대학교병원,37.5841791,127.049928,"40-12 Cheongnyangri-dong, Dongdaemun-gu, Seoul, South Korea"
29,삼육서울병원,37.504569,126.940919,"42 Jangseungbaegi-ro 10-gil, Sangdo-dong, Dongjak-gu, Seoul, South Korea"
30,서울특별시동부병원,37.49333730000001,126.9246093,"20 Boramae-ro 5-gil, Sindaebang-dong, Dongjak-gu, Seoul, South Korea"
31,서울성심병원,37.5663123,126.9020798,"212 Woldeukeom-ro, Seongsan 2(i)-dong, Mapo-gu, Seoul, South Korea"
32,동작구보건소,37.5785881,126.936251,"165-2 Yeonhui-dong, Seodaemun-gu, Seoul, South Korea"
33,보라매병원,37.5622702,126.941068,"50-1 Yonsei-ro, Sinchon-dong, Seodaemun-gu, Seoul, South Korea"
34,마포구보건소,37.4836015,127.0334387,"1376-3 Seocho-dong, Seocho-gu, Seoul, South Korea"
35,서대문구보건소,37.5017688,127.0047906,"222 Banpo-daero, Banpo-dong, Seocho-gu, Seoul, South Korea"
36,학교법인연세대학교의과대학세브란스병원,37.4554808,127.0688387,"260 Heolleung-ro, Naegok-dong, Seocho-gu, Seoul, South Korea"
37,서초구보건소,37.5670357,127.0331864,"16-1 Hongik-dong, Seongdong-gu, Seoul, South Korea"
38,학교법인가톨릭학원가톨릭대학교서울성모병원,37.5596479,127.0439633,"222-1 Wangsimni-ro, Sageun-dong, Seongdong-gu, Seoul, South Korea"
39,서울특별시 어린이병원,37.54839279999999,127.0656494,"66-196번지 Songjeong-dong, Seongdong-gu, Seoul, South Korea"
40,성동구보건소,37.6026426,127.0395181,"63 Hwarang-ro, Wolgok 2(i)-dong, Seongbuk-gu, Seoul, South Korea"
41,한양대학교병원,37.5870127,127.0268836,"73 Inchon-ro, Anam-dong, Seongbuk-gu, Seoul, South Korea"
42,성동군자의원,37.514543,127.106542,"326 Olympic-ro, Jamsil 6(yuk)-dong, Songpa-gu, Seoul, South Korea"
43,성북구보건소,37.526922,127.108381,"88 Olympic-ro 43-gil, Pungnap 2(i)-dong, Songpa-gu, Seoul, South Korea"
44,(학)고려대학교의과대학부속병원(안암병원),37.4963176,127.1234353,"123 Songi-ro, Garakbon-dong, Songpa-gu, Seoul, South Korea"
45,송파구보건소,37.5175388,126.8658707,"321-5 Sinjeong 6(yuk)-dong, Yangcheon-gu, Seoul, South Korea"
46,재단법인아산사회복지재단서울아산병원,37.5124059,126.8331164,"South Korea, Seoul, Yangcheon-gu, Sinjeong-dong, 신정이펜1로 20"
47,경찰병원,37.5371113,126.8855845,"911-1 Mok-dong, Yangcheon-gu, Seoul, South Korea"
48,양천구보건소,37.5284349,126.8636189,"899-1 Sinjeong 4(sa)-dong, Yangcheon-gu, Seoul, South Korea"
49,서울특별시 서남병원,37.5264549,126.8955343,"123 Dangsan-ro, Dangsandong 3(sam)-ga, Yeongdeungpo-gu, Seoul, South Korea"
50,이화여자대학교의과대학부속목동병원,37.492737,126.908812,"1 Singil-ro, Daerim-dong, Yeongdeungpo-gu, Seoul, South Korea"
51,홍익병원,37.5178178,126.9355584,"10 63-ro, Yeoeuido-dong, Yeongdeungpo-gu, Seoul, South Korea"
52,영등포구보건소,37.5119571,126.9223932,"South Korea, Seoul, Yeongdeungpo-gu, Yeouidaebang-ro 53-gil, 22"
53,한림대학교강남성심병원,37.4939034,126.8992293,"156 Dorim-ro, Daerim-dong, Yeongdeungpo-gu, Seoul, South Korea"
54,가톨릭대학교 여의도성모병원,37.5323504,126.9903613,"150 Noksapyeong-daero, Itaewon 1(il)-dong, Yongsan-gu, Seoul, South Korea"
55,성애의료재단성애병원,37.5339355,127.0043336,"59 Daesagwan-ro, Hannam-dong, Yongsan-gu, Seoul, South Korea"
56,명지성모병원,37.60245219999999,126.9288474,"84 Nokbeon-dong, Eunpyeong-gu, Seoul, South Korea"
57,용산구보건소,37.6042789,126.9050867,"49 Galhyeon-ro 7-gil, Yeokchon-dong, Eunpyeong-gu, Seoul, South Korea"
58,순천향대학교 부속 서울병원,37.594201,126.9232968,"90 Baengnyeonsan-ro, Eungam-dong, Eunpyeong-gu, Seoul, South Korea"
59,은평구보건소,37.6338843,126.9165592,"1021 Tongil-ro, Jingwan-dong, Eunpyeong-gu, Seoul, South Korea"
60,서울특별시립 서북병원,37.6208074,126.919588,"873 Tongil-ro, Galhyeon-dong, Eunpyeong-gu, Seoul, South Korea"
61,서울특별시 은평병원,37.5817685,126.9692571,"36 Jahamun-ro 19-gil, Ogin-dong, Jongno-gu, Seoul, South Korea"
62,가톨릭대학교 은평성모병원,37.5683585,126.9674846,"29 Saemunan-ro, Gyonam-dong, Jongno-gu, Seoul, South Korea"
63,청구성심병원,37.5670139,126.9669384,"9 Saemunan-ro, Gyonam-dong, Jongno-gu, 서울특별시 South Korea"
64,종로구보건소,37.5880278,126.9826666,"Samcheong-ro 10-gil, Samcheong-dong, Jongno-gu, Seoul, South Korea"
65,강북삼성병원,37.5649096,126.9887525,"9 Mareunnae-ro, Euljiro-dong, Jung-gu, Seoul, South Korea"
66,서울적십자병원,37.5638401,127.0154705,"16 Dasan-ro 39-gil, Muhak-dong, Jung-gu, Seoul, South Korea"
67,서울지구병원,37.6064978,127.0927615,"179 Bonghwasan-ro, Sinnae 2(i)-dong, Jungnang-gu, Seoul, South Korea"
68,인제대학교서울백병원,37.6127725,127.0981666,"156 Sinnae-ro, Sinnae-dong, Jungnang-gu, Seoul, South Korea"
69,중구보건소,37.5496053,126.868277,"561 Gonghang-daero, Yeomchang-dong, Gangseo-gu, 서울특별시 South Korea"
70,중랑구보건소,35.0906026,128.8533057,"1627-2 Songjeong-dong, Gangseo-gu, Busan, South Korea"
71,서울의료원,35.2420475,129.0924716,"1777 Jungang-daero, Bugok 3(sam)-dong, Geumjeong-gu, Busan, South Korea"
72,강서구보건소,35.214399,129.1040842,"South Korea, Busan, Geumjeong-gu, Seo-dong, 서동로 162"
73,갑을녹산병원,35.3213697,129.2433137,"40 Jwadong-gil, Jangan-eup, Gijang-gun, Busan, South Korea"
74,금정구보건소,37.461015,126.677363,"25 Juanseo-ro, Dohwa 1(il)-dong, Incheon, South Korea"
75,세웅병원,35.1106981,129.1096188,"25-14 Yongho-ro 232beon-gil, Yongho 4(sa)-dong, Nam-gu, Busan, South Korea"
76,동남권원자력의원,35.1969082,129.0961081,"27 Annyeon-ro 109beon-gil, Allak 1(il)-dong, Dongnae-gu, Busan, South Korea"
77,기장군보건소,37.655909,126.776126,"South Korea, Gyeonggi-do, Goyang-si, Ilsandong-gu, Madu-dong, 1010"
78,남구 보건소,35.1407746,129.0590279,"119 Beomil-ro, Beomil 2(i)-dong, Dong-gu, Busan, South Korea"
79,부산성모병원,35.8763947,128.6439413,"640-1 Hyomok 2(i)-dong, Dong-gu, Daegu, South Korea"
80,봉생병원,35.2113842,129.0798625,"56 Myeongnyun-ro 187beon-gil, Myeongnyun-dong, Dongnae-gu, Busan, South Korea"
81,동구보건소,35.1461397,129.0208659,"75 Bokji-ro, Gaegeum-dong, Busanjin-gu, Busan, South Korea"
82,좋은문화병원,35.1463098,129.0599791,"36 Hwangnyeong-daero 8beon-gil, Beomcheon 1(il)-dong, Busanjin-gu, Busan, South Korea"
83,대동병원,35.1577915,129.0499846,"721 Gaya-daero, Danggam-dong, Busanjin-gu, Busan, South Korea"
84,동래구보건소 ,35.1697738,129.0770884,"62 Yangjeong-ro, Yangjeong-dong, Busanjin-gu, Busan, South Korea"
85,인제대학교부산백병원,35.1468885,129.0583337,"605 Jungang-daero, Beomcheon-dong, Busanjin-gu, Busan, South Korea"
86,부산진구보건소,36.814962,127.11481,"234-1 Buldang-dong, Seobuk-gu, Cheonan-si, Chungcheongnam-do, South Korea"
87,온종합병원,37.556895,126.850927,"389 Gonghang-daero, Deungchon 3(sam)-dong, Gangseo-gu, Seoul, South Korea"
88,동의병원,35.2095851,129.0045422,"1786 Nakdong-daero, Gupo-dong, Buk-gu, Busan, South Korea"
89,춘해병원,35.152417,128.992039,"242 Hakgam-daero, Gamjeon-dong, Sasang-gu, Busan, South Korea"
90,북구보건소,35.1504973,129.0081773,"326 Gaya-daero, Jurye 2(i)-dong, Sasang-gu, Busan, South Korea"
91,의료법인 인당의료재단 부민병원,35.0943098,128.9594344,"2 Hasinbeonyeong-ro 127(baegisip, Sinpyeong-dong, Saha-gu, Busan, South Korea"
92,구포성심병원,37.5444051,126.6739044,"South Korea, 심곡동 246-1번지 서구 인천광역시 KR"
93,사상구보건소,35.1199772,129.0175653,"26 Daesingongwon-ro, Dongdaesindong 3(sam)-ga, Seo-gu, Busan, South Korea"
94,좋은삼선병원,35.0803993,129.0159305,"262 Gamcheon-ro, Amnam-dong, Seo-gu, Busan, South Korea"
95,사하구보건소,35.1126724,129.0111494,"170 Daeti-ro, Seodaesindong 2(i)-ga, Seo-gu, Busan, South Korea"
96,서구 보건소,35.1500199,129.1107612,"493 Suyeong-ro, Namcheon 1(il)-dong, Suyeong-gu, Busan, South Korea"
97,동아대학교병원,35.1608349,129.1131908,"615 Suyeong-ro, Gwangan-dong, Suyeong-gu, Busan, South Korea"
98,고신대학교복음병원,35.1768327,129.0791413,"2 Yeonje-ro, Yeonsan-dong, Yeonje-gu, Busan, South Korea"
99,삼육부산병원,35.0902862,129.0680202,"423 Taejong-ro, Cheonghak 2(i)-dong, Yeongdo-gu, Busan, South Korea"
100,좋은강안병원,35.0922587,129.0405361,"71 Daegyodong 2(i)-ga, Yeongdo-gu, Busan, South Korea"
101,수영구보건소,35.0919318,129.0439555,"133 Taejong-ro, Bongnae 1(il)-dong, Yeongdo-gu, Busan, South Korea"
102,비에이치한서병원,37.5638401,127.0154705,"16 Dasan-ro 39-gil, Muhak-dong, Jung-gu, Seoul, South Korea"
103,연제구보건소,35.1072868,129.032531,"121 Junggu-ro, Daecheongdong 4(sa)-ga, Jung-gu, Busan, South Korea"
104,영도구보건소,35.1641139,129.1786601,"59 Yangun-ro 37beon-gil, Jwa 2(i)-dong, Haeundae-gu, Busan, South Korea"
105,영도병원,35.161392,129.155863,"584 Haeun-daero, U-dong, Haeundae-gu, Busan, South Korea"
106,해동병원,35.1734932,129.1819789,"875 Haeun-daero, Jwa 4(sa)-dong, Haeundae-gu, Busan, South Korea"
107,중구 보건소,35.8472995,128.5848913,"South Korea, Daegu, Daemyeong-dong, 영남대학교의료원"
108,메리놀병원,35.8437163,128.5680041,"3056-6 Daemyeong-dong, Nam-gu, Daegu, South Korea"
109,해운대구보건소,37.461015,126.677363,"25 Juanseo-ro, Dohwa 1(il)-dong, Incheon, South Korea"
110,해운대부민병원,37.534993,126.722517,"852-40 Jakjeon-dong, Gyeyang-gu, Incheon, South Korea"
111,인제대학교해운대백병원,35.853411,128.4800187,"1035 Dalgubeol-daero, Sindang-dong, Dalseo-gu, Daegu, South Korea"
112,영남대학교병원,35.8507164,128.541442,"141 Gamsambuk-gil, Gamsam-dong, Dalseo-gu, Daegu, South Korea"
113,대구 가톨릭대학교병원,35.8331582,128.5542011,"200 Songhyeon-dong, Dalseo-gu, Daegu, South Korea"
114,남구보건소,35.8366663,128.5517369,"220 Guma-ro, Songhyeon-dong, Dalseo-gu, Daegu, South Korea"
115,드림병원,35.694787,128.44027,"17 Biseul-ro 130-gil, Hyeonpung-myeon, Dalseong-gun, Daegu, South Korea"
116,달서구보건소,35.883886,128.624077,"South Korea, Daegu, Dong-gu, 아양로 99"
117,계명대학교 동산병원,37.655909,126.776126,"South Korea, Gyeonggi-do, Goyang-si, Ilsandong-gu, Madu-dong, 1010"
118,의료법인구의료재단 구병원,36.814962,127.11481,"234-1 Buldang-dong, Seobuk-gu, Cheonan-si, Chungcheongnam-do, South Korea"
119,삼일병원,35.9349066,128.5492967,"440 Chilgokjungang-daero, Eupnae-dong, Buk-gu, Daegu, South Korea"
120,세강병원,37.5444051,126.6739044,"South Korea, 심곡동 246-1번지 서구 인천광역시 KR"
121,달성군보건소,35.8446059,128.6122499,"213 Suseong-ro, Jung-dong, Suseong-gu, Daegu, South Korea"
122,대구파티마병원,37.5638401,127.0154705,"16 Dasan-ro 39-gil, Muhak-dong, Jung-gu, Seoul, South Korea"
123,동구보건소,37.7370885,126.4852352,"214-1 Namsan-ri, Ganghwa-eup, Ganghwa-gun, Incheon, South Korea"
124,북구보건소,37.7311247,126.4781602,"31 Chungnyeolsa-ro, Ganghwa-eup, Ganghwa-gun, Incheon, South Korea"
125,대구가톨릭대학교 칠곡가톨릭병원,37.5322569,126.7343276,"900-4 Jakjeon-dong, Gyeyang-gu, Incheon, South Korea"
126,서구보건소,37.5321071,126.7368433,"South Korea, Incheon, Gyeyang-gu, 909번지"
127,수성구보건소,37.5374507,126.7375494,"1079-1 Gyesan-dong, Gyeyang-gu, Incheon, South Korea"
128,중구보건소,37.4478227,126.7304137,"633 Sorae-ro, Mansu 6(yuk)-dong, Namdong-gu, Incheon, South Korea"
129,강화군보건소,37.4816664,126.6457594,"214 Saetgol-ro, Songrim-dong, Dong-gu, Incheon, South Korea"
130,비에스종합병원,37.655909,126.776126,"South Korea, Gyeonggi-do, Goyang-si, Ilsandong-gu, Madu-dong, 1010"
131,한림병원,37.4614899,126.6429794,"340-1 Sungui-dong, Nam-gu, Incheon, South Korea"
132,메디플렉스 세종병원,37.461015,126.677363,"25 Juanseo-ro, Dohwa 1(il)-dong, Incheon, South Korea"
133,계양구보건소,37.4622095,126.6806986,"South Korea, Incheon, Nam-gu, 미추홀대로 726"
134,남동구보건소,37.4847425,126.7248777,"56 Dongsu-ro, Bupyeong-dong, Bupyeong-gu, Incheon, South Korea"
135,의료법인성수의료재단인천백병원,37.5070301,126.7201013,"175 Bupyeong-daero, Cheongcheon 2(i)-dong, Bupyeong-gu, Incheon, South Korea"
136,동구보건소,37.4761818,126.7539528,"47-3 Gusan-dong, Bupyeong-gu, Incheon, South Korea"
137,현대유비스 병원,37.4987886,126.7242462,"291 Buheung-ro, Bupyeong-dong, Bupyeong-gu, Incheon, South Korea"
138,미추홀구보건소,37.5424593,126.6838205,"25 Simgok-ro 100beon-gil, Yeonhui-dong, Seo-gu, Incheon, South Korea"
139,인천사랑병원,37.489267,126.6786045,"South Korea, Incheon, Seo-gu, Gajwa-dong, 277-7"
140,가톨릭대학교 인천성모병원,37.5091475,126.6696957,"70 Sinseok-ro, Seongnam 1(il)-dong, Seo-gu, Incheon, South Korea"
141,부평세림병원,37.5924984,126.6710821,"South Korea, Incheon, Seo-gu, Cheongma-ro 19beon-gil, 5"
142,근로복지공단 인천병원,37.3418372,126.8175192,"1087-27 Seonbu 3(sam)-dong, Danwon-gu, Ansan-si, Gyeonggi-do, South Korea"
143,부평구보건소,37.5444051,126.6739044,"South Korea, 심곡동 246-1번지 서구 인천광역시 KR"
144,국제성모병원,37.4080241,126.6705124,"98 Meonugeum-ro, Dongchun 2(i)-dong, Yeonsu-gu, Incheon, South Korea"
145,나은병원,37.4190104,126.6710713,"South Korea, Incheon, Yeonsu-gu, Hambangmoe-ro, 13"
146,성민병원,37.4182423,126.6895852,"580-3 Yeonsu 3(sam)-dong, Yeonsu-gu, Incheon, South Korea"
147,검단탑병원,37.2536111,126.3072222,"1024 Jawol-ri, Jawol-myeon, Ongjin-gun, Incheon, South Korea"
148,온누리병원,37.9580028,124.6645759,"522-6 Bukpo-ri, Baengnyeong-myeon, Ongjin-gun, Incheon, South Korea"
149,서구보건소,37.4712731,126.632106,"10 Dapdong-ro 30beon-gil, Yulmok-dong, Jung-gu, Incheon, South Korea"
150,나사렛 국제병원,37.5638401,127.0154705,"16 Dasan-ro 39-gil, Muhak-dong, Jung-gu, Seoul, South Korea"
151,연수구보건소,37.4935914,126.5313208,"100-1 Unnamseo-ro, Yeongjong-dong, Jung-gu, Incheon, South Korea"
152,인천적십자병원,35.1401126,126.7936553,"15 Gwangsan-ro 29beon-gil, Songjeong-dong, Gwangsan-gu, Gwangju, South Korea"
153,옹진군보건소,35.2210714,126.8452969,"59 Cheomdanjungang-ro 170(baekchi, Cheomdan 1(il)-dong, Gwangsan-gu, Gwangju, South Korea"
154,백령병원,37.5092784,127.0439293,"682-23 Yeoksam 1(il)-dong, Gangnam-gu, Seoul, South Korea"
155,인천기독병원,35.1366602,126.9121238,"37 Yangnim-ro, Yangnim-dong, Nam-gu, Gwangju, South Korea"
156,중구보건소,37.461015,126.677363,"25 Juanseo-ro, Dohwa 1(il)-dong, Incheon, South Korea"
157,영종보건지소,37.655909,126.776126,"South Korea, Gyeonggi-do, Goyang-si, Ilsandong-gu, Madu-dong, 1010"
158,광산구보건소,35.2028321,126.8976315,"309 Yangil-ro, Ilgok-dong, Buk-gu, Gwangju, South Korea"
159,첨단종합병원,36.814962,127.11481,"234-1 Buldang-dong, Seobuk-gu, Cheonan-si, Chungcheongnam-do, South Korea"
160,KS병원,35.1325884,126.8556011,"250-24 Geumho-dong, Seo-gu, Gwangju, South Korea"
161,광주기독병원,37.5444051,126.6739044,"South Korea, 심곡동 246-1번지 서구 인천광역시 KR"
162,남구보건소,36.4448023,127.4260198,"55 Seokbong-ro 38beon-gil, Seokbong-dong, Daedeok-gu, Daejeon, South Korea"
163,동구보건소,36.4470957,127.4396782,"220 Sintanjin-dong, Daedeok-gu, Daejeon, South Korea"
164,광주일곡병원,37.655909,126.776126,"South Korea, Gyeonggi-do, Goyang-si, Ilsandong-gu, Madu-dong, 1010"
165,북구보건소,36.348219,127.435792,"1672 Dongseo-daero, Seongnam-dong, Dong-gu, Daejeon, South Korea"
166,서광병원,37.5444051,126.6739044,"South Korea, 심곡동 246-1번지 서구 인천광역시 KR"
167,서구보건소,36.3065056,127.3425722,"158 Gwanjeodong-ro, Gasuwon-dong, Seo-gu, Daejeon, South Korea"
168,대덕구보건소,37.636417,127.069959,"68 Hangeulbiseong-ro, Hagye-dong, Nowon-gu, Seoul, South Korea"
169,대전보훈병원,36.3581118,127.3354294,"51 Yuseong-daero 730beon-gil, Jangdae-dong, Yuseong-gu, Daejeon, South Korea"
170,근로복지공단 대전병원,36.3751301,127.3249411,"923 Jijok-dong, Yuseong-gu, Daejeon, South Korea"
171,동구보건소,37.5638401,127.0154705,"16 Dasan-ro 39-gil, Muhak-dong, Jung-gu, Seoul, South Korea"
172,대전한국병원,36.3361302,127.4106561,"10-7 Mok-dong, Jung-gu, Daejeon, South Korea"
173,서구보건소,36.32280799999999,127.42025,"South Korea, Daejeon, Jung-gu, 대흥로 64(대흥동) 가톨릭대학교 대전성모병원"
174,건양대학교병원,35.546209,129.3230784,"13 Wolpyeong-ro171beon-gil, Sinjeong-dong, Nam-gu, Ulsan, South Korea"
175,을지대학교병원,35.5528034,129.2690267,"51 Bukbusunhwan-doro, Mugeo-dong, Nam-gu, Ulsan, South Korea"
176,유성구보건소,35.5315728,129.3052214,"10 Munsu-ro480beon-gil, Sinjeong-dong, Nam-gu, Ulsan, South Korea"
177,유성선병원,37.461015,126.677363,"25 Juanseo-ro, Dohwa 1(il)-dong, Incheon, South Korea"
178,중구보건소,37.655909,126.776126,"South Korea, Gyeonggi-do, Goyang-si, Ilsandong-gu, Madu-dong, 1010"
179,대전선병원,35.5829212,129.3592591,"1007 Saneom-ro, Hyomun-dong, Buk-gu, Ulsan, South Korea"
180,대전성모병원,36.814962,127.11481,"234-1 Buldang-dong, Seobuk-gu, Cheonan-si, Chungcheongnam-do, South Korea"
181,울산병원,35.5598437,129.120849,"378 Gyodong-ri, Samnam-myeon, Ulju-gun, Ulsan, South Korea"
182,좋은삼정병원,35.5584012,129.113771,"67-12 Seohyanggyo 1-gil, Samnam-myeon, Ulju-gun, Ulsan, South Korea"
183,의)정안의료재단 중앙병원,35.553459,129.3020822,"239 Taehwa-ro, Taehwa-dong, Jung-gu, Ulsan, South Korea"
184,남구보건소,37.5638401,127.0154705,"16 Dasan-ro 39-gil, Muhak-dong, Jung-gu, Seoul, South Korea"
185,동구보건소,36.6055746,127.2963827,"16 Geongang-gil, Jochiwon-eup, 세종특별자치시 South Korea"
186,울산시티병원,36.31695,127.4157208,"282 Munhwa-ro, Daesa-dong, Jung-gu, Daejeon, South Korea"
187,북구보건소,37.8334563,127.5105765,"155-18 Gahwa-ro, Gapyeong-eup, Gapyeong-gun, Gyeonggi-do, South Korea"
188,서울산보람병원,37.6909854,127.5213535,"South Korea, Gyeonggi-do, Gapyeong-gun, Seorak-myeon, Misari-ro, 267-177 KR"
189,울주군보건소,37.6577337,126.831185,"603 Jugyo-dong, Deokyang-gu, Goyang-si, Gyeonggi-do, South Korea"
190,동강병원,37.655909,126.776126,"South Korea, Gyeonggi-do, Goyang-si, Ilsandong-gu, Madu-dong, 1010"
191,중구보건소,37.6844334,126.7757915,"54 Iljung-ro, Ilsan 2(i)-dong, Ilsanseo-gu, Goyang-si, Gyeonggi-do, South Korea"
192,세종특별자치시보건소,37.6742398,126.7503499,"170 Juhwa-ro, Daehwa-dong, Ilsanseo-gu, Goyang-si, Gyeonggi-do, South Korea"
193,세종특별자치시보건소(충남대학교병원세종의원),37.6763007,126.8067038,"27 Donggung-ro, Siksa-dong, Ilsandong-gu, Goyang-si, Gyeonggi-do, South Korea"
194,가평군보건소,37.645494,126.793013,"100 Ilsan-ro, Baekseok 1(il)-dong, Ilsandong-gu, Goyang-si, Gyeonggi-do, South Korea"
195,HJ매그놀리아국제병원,37.6818276,126.7802042,"760 Goyang-daero, Jungsan-dong, Ilsandong-gu, Goyang-si, Gyeonggi-do, South Korea"
196,덕양구 보건소,37.4298017,126.9870003,"69 Gwanmun-ro, Jungang-dong, Gwacheon-si, Gyeonggi-do, South Korea"
197,일산동구보건소,37.473461,126.871844,"36 Digital-ro, Cheolsan 3(sam)-dong, Gwangmyeong-si, Gyeonggi-do, South Korea"
198,일산서구보건소,37.4563798,126.8785379,"230 Haan-dong, Gwangmyeong-si, Gyeonggi-do, South Korea"
199,인제대학교 일산백병원,37.416391,127.250697,"194 Pabal-ro, Gyengan-dong, Gwangju-si, Gyeonggi-do, South Korea"
200,동국대학교일산불교병원,37.4109175,127.2601723,"45 Gwangju-daero, Gyengan-dong, Gwangju-si, Gyeonggi-do, South Korea"
201,국민건강보험공단 일산병원,37.604672,127.145091,"674-3 Inchang-dong, Guri-si, Gyeonggi-do, South Korea"
202,일산복음병원,37.6012,127.1323701,"153 Gyeongchun-ro, Gyomun 1(il)-dong, Guri-si, Gyeonggi-do, South Korea"
203,과천시보건소,37.3586521,126.9472959,"591 Gunpo-ro, Dang-dong, Gunpo-si, Gyeonggi-do, South Korea"
204,광명성애병원,37.3593502,126.9335886,"321 Sanbon-ro, Gwangjeong-dong, Gunpo-si, Gyeonggi-do, South Korea"
205,광명시보건소,37.3331179,126.9259534,"221 Gunpo-ro, Gunpo 2(i)-dong, Gunpo-si, Gyeonggi-do, South Korea"
206,광주시보건소,37.6323275,126.7107438,"389-15 Geolpo-dong, Gimpo-si, Gyeonggi-do, South Korea"
207,참조은병원,37.6410478,126.6598319,"283 Gimpohangang 3-ro, Janggi-dong, Gimpo-si, Gyeonggi-do, South Korea"
208,구리시보건소,37.62369,126.72291,"108 Saujung-ro, Sau-dong, Gimpo-si, Gyeonggi-do, South Korea"
209,한양대학교구리병원,37.6236541,127.2099518,"South Korea, 경기 남양주시 금곡동 1085"
210,효신의료재단 지샘병원,37.6823025,127.2044164,"South Korea, Gyeonggi-do, Namyangju-si, Onam-eup, Onam-ri, 570"
211,원광대학교 산본병원,37.6402518,127.0285046,"463-44 Beon-dong, Gangbuk-gu, Seoul, South Korea"
212,군포시보건소,37.896579,127.0516751,"714-9 Saengyeon-dong, Dongducheon-si, Gyeonggi-do, South Korea"
213,김포우리병원,37.4941654,126.7809774,"16 Oksan-ro 10beon-gil, Jung 2(i)-dong, Bucheon-si, Gyeonggi-do, South Korea"
214,뉴고려병원,37.528259,126.796405,"129 Ojeong-dong, Ojeong-gu, Bucheon-si, Gyeonggi-do, South Korea"
215,김포시보건소,37.4983977,126.7628536,"170 Jomaru-ro, Jung 1(il)-dong, Bucheon-si, Gyeonggi-do, South Korea"
216,남양주보건소,37.486986,126.792379,"327 Sosa-ro, Sosa-dong, Wonmi-gu, Bucheon-si, Gyeonggi-do, South Korea"
217,남양주풍양보건소,37.480986,126.791212,"91-121 Sosabon-dong, Sosa-gu, Bucheon-si, Gyeonggi-do, South Korea"
218,남양주한양병원,37.4110097,127.1246119,"349 Yatap-dong, Bundang-gu, Seongnam-si, Gyeonggi-do, South Korea"
219,현대병원,37.4418516,127.1707231,"137 Geumsang-ro, Sangdaewon 1(il)-dong, Jungwon-gu, Seongnam-si, Gyeonggi-do, South Korea"
220,동두천보건소,37.3881528,127.1217472,"20 Seohyeon-ro 180(baekpalsip)beo, Seohyeon-dong, Bundang-gu, Seongnam-si, Gyeonggi-do, South Korea"
221,부천시보건소,37.410195,127.125487,"59 Yatap-ro, Yatap-dong, Bundang-gu, Seongnam-si, Gyeonggi-do, South Korea"
222,부천시 오정보건소,37.4443074,127.1441357,"218 Sujeong-ro, Sinheung-dong, Sujeong-gu, Seongnam-si, Gyeonggi-do, South Korea"
223,순천향대학교 부천병원,37.4451695,127.139086,"10 Sujeong-ro 171(baekchilsibil)b, Taepyeong 2(i)-dong, Sujeong-gu, Seongnam-si, Gyeonggi-do, South Korea"
224,가톨릭대학교부천성모병원,37.4398433,127.1289799,"South Korea, Gyeonggi-do, Seongnam-si, Sujeong-gu, Sujeong-ro, 76 KR"
225,부천세종병원,37.4528298,127.161927,"12 Sanseong-daero 476(sabaekchils, Geumgwang 2(i)-dong, Jungwon-gu, Seongnam-si, Gyeonggi-do, South Korea"
226,성남시분당구보건소,37.2588035,126.9711454,"22-50 Homaesil-ro, Tap-dong, Gwonseon-gu, Suwon-si, Gyeonggi-do, South Korea"
227,중원구보건소,37.2568735,127.0695287,"396 Yeongtong-ro, Yeongtong 1(il)-dong, Yeongtong-gu, Suwon-si, Gyeonggi-do, South Korea"
228,분당제생병원,37.3043448,127.0101768,"101 Songwon-ro, Jowon 2(i)-dong, Jangan-gu, Suwon-si, Gyeonggi-do, South Korea"
229,분당차병원 ,37.271503,127.0124207,"6 Paldalsan-ro, Gyo-dong, Paldal-gu, Suwon-si, Gyeonggi-do, South Korea"
230,수정구보건소,37.2794275,127.0474729,"164 Woldeukeom-ro, Woncheon-dong, Yeongtong-gu, Suwon-si, Gyeonggi-do, South Korea"
231,성남시의료원,37.291819,126.996309,"69 Suseong-ro 245beon-gil, Jeongja 2(i)-dong, Jangan-gu, Suwon-si, Gyeonggi-do, South Korea"
232,순천의료재단정병원,37.2781305,127.0277888,"93 Jungbu-daero, Ji-dong, Paldal-gu, Suwon-si, Gyeonggi-do, South Korea"
233,성남중앙병원,37.2786031,127.0332566,"77 Gwongwang-ro 367beon-gil, Uman-dong, Paldal-gu, Suwon-si, Gyeonggi-do, South Korea"
234,권선구보건소,37.336864,126.7280003,"1366-11 Jeongwang-dong, Siheung-si, Gyeonggi-do, South Korea"
235,영통구보건소,37.4445464,126.7895191,"57 Bokji-ro, Daeya-dong, Siheung-si, Gyeonggi-do, South Korea"
236,장안구보건소,37.3528202,126.7245914,"South Korea, Gyeonggi-do, Siheung-si, Jeongwang 3(sam)-dong, Okgucheonseo-ro, 337 시화병원"
237,팔달구보건소,37.4453795,126.784964,"South Korea, Gyeonggi-do, Siheung-si, Daeya-dong, 호현로 55"
238,아주대학교병원,37.3467797,126.7399989,"1799-5 Jeongwang-dong, Siheung-si, Gyeonggi-do, South Korea"
239,경기도의료원 수원병원,37.3192776,126.8121513,"Jungang-daero, Choji-dong, Danwon-gu, Ansan-si, Gyeonggi-do, South Korea"
240,성빈센트병원,37.3009816,126.8450761,"5 Chadolbaegi-ro 1-gil, Sa-dong, Sangnok-gu, Ansan-si, Gyeonggi-do, South Korea"
241,동수원병원,37.3182536,126.8248839,"516 Gojan-dong, Danwon-gu, Ansan-si, Gyeonggi-do, South Korea"
242,석경의료재단 센트럴병원,37.377467,126.7842728,"20 Janggok-ro 37beon-gil, Yeonseong-dong, Siheung-si, Gyeonggi-do, South Korea"
243,신천연합병원 ,37.3167579,126.8739867,"95 Il-dong, Sangnok-gu, Ansan-si, Gyeonggi-do, South Korea"
244,시흥시화병원,37.0172199,127.2604121,"436 Dangwang-dong, Anseong, Gyeonggi-do, South Korea"
245,시흥시보건소,37.0062179,127.2710329,"58 Sijang-gil, Anseong 2(i)-dong, Anseong, Gyeonggi-do, South Korea"
246,시흥시 정왕보건지소,37.0001646,127.2698182,"67-21 Dogi-dong, Anseong, Gyeonggi-do, South Korea"
247,단원보건소,37.3930675,126.9520266,"41 Pyeongchon-daero 253beon-gil, Bisan-dong, Dongan-gu, Anyang, Gyeonggi-do, South Korea"
248,안산시상록수보건소,37.3858049,126.9329258,"48 Munye-ro, Anyang-dong, Manan-gu, Anyang, Gyeonggi-do, South Korea"
249,고대안산병원,37.391604,126.9619483,"22 Gwanpyeong-ro 170beon-gil, Pyeongan-dong, Dongan-gu, Anyang, Gyeonggi-do, South Korea"
250,한도병원,37.3933729,126.9242927,"613-8 Anyang 5(o)-dong, Manan-gu, Anyang, Gyeonggi-do, South Korea"
251,근로복지공단안산병원,37.7855648,127.0466233,"1533 Buheung-ro, Majeon-dong, Yangju-si, Gyeonggi-do, South Korea"
252,경기도의료원 안성병원,37.4969969,127.4866164,"17 Mayusan-ro, Yangpyeong-eup, Yangpyeong-gun, Gyeonggi-do, South Korea"
253,안성성모병원,37.4938723,127.5034779,"South Korea, Gyeonggi-do, Yangpyeong-gun, Yangpyeong-eup, 중앙로 129"
254,안성시보건소,37.3012851,127.6266777,"39 Cheongsim-ro, Yeoju-eup, Yeoju-gun, Gyeonggi-do, South Korea"
255,동안구보건소,37.2945522,127.6403573,"14 Yeoheung-ro 160beon-gil, Yeoju-eup, Yeoju-gun, Gyeonggi-do, South Korea"
256,만안구보건소,38.0234525,127.0609761,"95 Eundaeseong-ro, Jeongok-eup, Yeoncheon-gun, Gyeonggi-do, South Korea"
257,한림대학교 성심병원,37.141467,127.075137,"South Korea, Gyeonggi-do, Osan-si, 원동 밀머리로1번길 14"
258,안양샘병원,37.2726166,127.1067502,"11 Singalro58Beon-gil, Singal-dong, Giheung-gu, Yongin-si, Gyeonggi-do, South Korea"
259,양주시보건소,37.3224952,127.0976795,"435 Poeun-daero, Pungdeokcheon 1(il)-dong, Suji-gu, Yongin-si, Gyeonggi-do, South Korea"
260,양평군보건소,37.2737071,127.1114742,"411 Jungbu-daero, Singal-dong, Giheung-gu, Yongin-si, Gyeonggi-do, South Korea"
261,양평병원,37.2408559,127.1760983,"1199 Jungbu-daero, Yeoksam-dong, Cheoin-gu, Yongin-si, Gyeonggi-do, South Korea"
262,세종여주병원,37.2315521,127.2113174,"18-1 Gimnyangjang-dong, Cheoin-gu, Yongin-si, Gyeonggi-do, South Korea"
263,여주시보건소,37.26654,127.15569,"363 Dongbaekjukjeondaero, Jung-dong, Giheung-gu, Yongin-si, Gyeonggi-do, South Korea"
264,연천군 보건의료원,37.2403892,127.2145807,"787-1 Gorim-dong, Cheoin-gu, Yongin-si, Gyeonggi-do, South Korea"
265,오산시보건소,37.3437286,126.9720042,"108 Gocheon-dong, Uiwang-si, Gyeonggi-do, South Korea"
266,오산한국병원,37.3502729,126.9767955,"29 Ojeoncheon-ro, Ojeon-dong, Uiwang-si, Gyeonggi-do, South Korea"
267,기흥구보건소,37.7410788,127.0425252,"South Korea, 의정부동 433번지 의정부시 경기도 KR"
268,수지구보건소,37.736154,127.0395143,"131 Beomgol-ro, Uijeongbu-dong, Uijeongbu-si, Gyeonggi-do, South Korea"
269,강남병원,37.7585478,127.0777071,"271 Cheonbo-ro, Geumo-dong, Uijeongbu-si, Gyeonggi-do, South Korea"
270,처인구보건소,37.7499744,127.0451028,"South Korea, Gyeonggi-do, Uijeongbu-si, Pyeonghwa-ro, 650 KR"
271,영문의료재단 다보스병원,37.74532019999999,127.0621285,"322 Geumsin-ro, Singok-dong, Uijeongbu-si, Gyeonggi-do, South Korea"
272,용인세브란스병원,37.2825934,127.4328154,"South Korea, Gyeonggi-do, Icheon-si, Gyeongchung-daero, 2742 KR"
273,용인서울병원,37.2889269,127.4522877,"13 Jeungsin-ro 153beon-gil, Jeungpo-dong, Icheon-si, Gyeonggi-do, South Korea"
274,의왕시보건소,37.7562857,126.7739286,"13 Hugok-ro, Geumchon 1(il)-dong, Paju-si, Gyeonggi-do, South Korea"
275,아가페의료재단 시티병원,37.7548246,126.7797228,"South Korea, Gyeonggi-do, Paju-si, Geumchon-dong, 중앙로 207"
276,경기도의료원의정부병원 (응급실),37.7580017,126.774838,"South Korea, Gyeonggi-do, Paju-si, Geumchon-dong, 948-3"
277,의정부시보건소,36.9906301,127.1204639,"South Korea, Gyeonggi-do, Pyeongtaek-si, Hapjeong-dong, 중앙로 338"
278,가톨릭대학교 의정부성모병원,36.9929714,127.0889484,"3 Pyeongtaek 2-ro 20beon-gil, Pyeongtaek-dong, Pyeongtaek-si, Gyeonggi-do, South Korea"
279,추병원,37.008348,127.0740863,"439-3 Segyo-dong, Pyeongtaek-si, Gyeonggi-do, South Korea"
280,의정부백병원,36.9908296,127.111917,"56 Pyeongtaek 5-ro, Bijeon-dong, Pyeongtaek-si, Gyeonggi-do, South Korea"
281,경기도의료원 이천병원,37.0482367,127.0570013,"South Korea, Gyeonggi-do, Pyeongtaek-si, Songtan-ro, 33 KR"
282,이천시보건소,37.0830118,127.0565588,"295 Seojeong-ro, Sinjang 1(il)-dong, Pyeongtaek-si, Gyeonggi-do, South Korea"
283,파주시보건소,37.900803,127.201216,"South Korea, Gyeonggi-do, Pocheon-si, Sineup-dong, 164-3"
284,경기도의료원 파주병원,37.9031168,127.1982732,"1648 Pocheon-ro, Sineup-dong, Pocheon-si, Gyeonggi-do, South Korea"
285,메디인병원,37.5390424,127.2155305,"10 Daecheong-ro, Sinjang 2(i)-dong, Hanam-si, Gyeonggi-do, South Korea"
286,의료법인 백송의료재단 굿모닝병원,37.1320589,126.9108215,"81-70 Pyeong-ri, Hyangnam-eup, Hwaseong-si, Gyeonggi-do, South Korea"
287,의료법인 박애의료재단 박애병원,37.1290591,126.9046833,"139-6 Baran-ri, Hyangnam-eup, Hwaseong-si, Gyeonggi-do, South Korea"
288,의료법인 양진의료재단 평택성모병원,37.2069694,127.0783865,"226-9 Nojak-ro, Seoku-dong, Hwaseong-si, Gyeonggi-do, South Korea"
289,평택보건소,37.2166637,127.0801209,"7 Keunjaebong-gil, Dongtan 1(il)-dong, Hwaseong-si, Gyeonggi-do, South Korea"
290,박병원,37.1991926,126.8262164,"읍 Sicheong-ro, Namyang-dong, Hwaseong-si, Gyeonggi-do, South Korea"
291,송탄보건소,37.8184814,128.8577533,"38 Bangdong-gil, Sacheon-myeon, Gangneung-si, Gangwon-do, South Korea"
292,포천시보건소,37.7743831,128.9071531,"42 Gangneung-daero 419beon-gil, Ponam-dong, Gangneung-si, Gangwon-do, South Korea"
293,경기도의료원 포천병원,37.7589918,128.899805,"30 Okga-ro, Okcheon-dong, Gangneung-si, Gangwon-do, South Korea"
294,소흘보건지소,37.742799,128.8827238,"38 Nambu-ro 17beon-gil, Naegok-dong, Gangneung-si, Gangwon-do, South Korea"
295,하남시보건소,38.3772967,128.4721882,"30 Suseong-ro, Ganseong-eup, Goseong-gun, Gangwon-do, South Korea"
296,화성중앙종합병원,37.522886,129.117069,"100-2 Cheongok-ro, Cheongok-dong, Donghae-si, Gangwon-do, South Korea"
297,화성시보건소,37.5300237,129.1073754,"26 Hapyeong-ro, Cheongok-dong, Donghae-si, Gangwon-do, South Korea"
298,화성시보건소 동탄보건지소,37.5322746,129.1059265,"190 Pyeongneung-dong, Donghae-si, Gangwon-do, South Korea"
299,동탄성심병원,37.4402857,129.1636506,"55-9 Namyang-dong, Samcheok-si, Gangwon-do, South Korea"
300,원광종합병원,37.4436465,129.1720941,"76 Cheokju-ro, Seongnae-dong, Samcheok-si, Gangwon-do, South Korea"
301,남양디에스병원,38.1960432,128.5761283,"36 Subok-ro, Gyo-dong, Sokcho-si, Gangwon-do, South Korea"
302,강릉아산병원,38.2165409,128.5890709,"3 Yeongnanghoban-gil, Yeongrang-dong, Sokcho-si, Gangwon-do, South Korea"
303,강릉동인병원,38.1979903,128.5783967,"South Korea, Gangwon-do, Sokcho-si, Gyo-dong, 중앙로 11"
304,강릉고려병원,38.1097784,127.9889697,"42 Gwangongseo-ro, Yanggu-eup, Yanggu-gun, Gangwon-do, South Korea"
305,강릉시보건소,38.1045016,127.9911494,"South Korea, 양구읍 상리 256-5번지 양구군 강원도 KR"
306,고성군보건소,38.07778090000001,128.6274049,"9-5 Yangyang-ro, Yangyang-eup, Yangyang-gun, Gangwon-do, South Korea"
307,동해시보건소,37.1864696,128.4652531,"59 Jungang 1(il)-ro, Yeongwol-eup, Yeongwol-gun, Gangwon-do, South Korea"
308,동해동인병원,37.1855252,128.4615591,"44 Hasong-ro, Yeongwol-eup, Yeongwol-gun, Gangwon-do, South Korea"
309,근로복지공단 동해병원,37.3478477,127.9458754,"20 Ilsan-ro, Ilsan-dong, Wonju-si, Gangwon-do, South Korea"
310,삼척의료원,37.3514647,127.9467988,"139 Wonil-ro, Ilsan-dong, Wonju-si, Gangwon-do, South Korea"
311,삼척시보건소,37.3326229,127.9492266,"387 Seowon-daero, Gaeun-dong, Wonju-si, Gangwon-do, South Korea"
312,속초시보건소,38.0633016,128.1685332,"34 Inje-ro 140beon-gil, Inje-eup, Inje-gun, Gangwon-do, South Korea"
313,강원도속초의료원,37.3830173,128.6587563,"430 Bongyang-ri, Jeongseon-eup, Jeongseon-gun, Gangwon-do, South Korea"
314,속초보광병원,37.380089,128.6715331,"33 Noksong-ro, Jeongseon-eup, Jeongseon-gun, Gangwon-do, South Korea"
315,양구군보건소,38.14833,127.302643,"16 Guntan-ro, Galmal-eup, Cheorwon-gun, Gangwon-do, South Korea"
316,의료법인 성심의료재단 양구성심병원,38.1502529,127.3077345,"208 Myeongseong-ro, Galmal-eup, Cheorwon-gun, Gangwon-do, South Korea"
317,양양군보건소,37.8840932,127.7399138,"77 Sakju-ro, Gyo-dong, Chuncheon-si, Gangwon-do, South Korea"
318,강원도영월의료원,37.8755383,127.7201937,"South Korea, Gangwon-do, Chuncheon-si, Jungangro 3(sam)-ga, 중앙로 135"
319,영월군보건소,37.1767864,128.9922306,"90 Taebaek-ro, Hwangji-dong, Taebaek-si, Gangwon-do, South Korea"
320,연세대학교 원주세브란스기독병원,37.10407319999999,129.0042595,"8 Bodeumi-gil, Jangseong-dong, Taebaek-si, Gangwon-do, South Korea"
321,원주시보건소,37.3687729,128.390471,"11 Noseong-ro, Pyeongchang-eup, Pyeongchang-gun, Gangwon-do, South Korea"
322,강원도원주의료원,37.6907864,127.89496,"17 Sallimgongwon 1-gil, Hongcheon-eup, Hongcheon-gun, Gangwon-do, South Korea"
323,인제군보건소,37.6901473,127.8768506,"5 Sinjangdae-ro, Hongcheon-eup, Hongcheon-gun, Gangwon-do, South Korea"
324,근로복지공단정선병원,38.1072042,127.7090768,"111 Gangbyeon-ro, Hwacheon-eup, Hwacheon-gun, Gangwon-do, South Korea"
325,정선군보건소,37.478425,127.9798747,"South Korea, Gangwon-do, Hoengseong-gun, Hoengseong-eup, Ipseok-ri, 153-10"
326,철원군보건소,37.4871296,127.9844504,"379 Hoengseong-ro, Hoengseong-eup, Hoengseong-gun, Gangwon-do, South Korea"
327,철원병원,36.8080308,127.7965506,"43 Dongjincheon-gil, Goesan-eup, Goesan-gun, Chungcheongbuk-do, South Korea"
328,한림대학교 춘천성심병원,36.81541199999999,127.7842385,"116 Imkkeokjeong-ro, Goesan-eup, Goesan-gun, Chungcheongbuk-do, South Korea"
329,춘천시보건소,36.9813616,128.3503088,"53 Sambong-ro, Danyang-eup, Danyang-gun, Chungcheongbuk-do, South Korea"
330,태백시보건소,36.9872283,128.3687144,"10 Byeolgok 6-gil, Danyang-eup, Danyang-gun, Chungcheongbuk-do, South Korea"
331,근로복지공단 태백병원,36.48327829999999,127.7182865,"36-1 Samsan-ri, Boeun-eup, Boeun-gun, Chungcheongbuk-do, South Korea"
332,평창군보건의료원,36.4881513,127.715845,"50 Donggwang-gil, Boeun-eup, Boeun-gun, Chungcheongbuk-do, South Korea"
333,홍천아산병원,37.5633388,127.058597,"South Korea, Seoul, Dongdaemun-gu, Jangan-dong, 413-1"
334,홍천군보건소,36.1684686,127.7759592,"7 Bangokdong-gil, Yeongdong-eup, Yeongdong-gun, Chungcheongbuk-do, South Korea"
335,화천군보건의료원,36.3133364,127.5720025,"150 Munjeong-ri, Okcheon-eup, Okcheon-gun, Chungcheongbuk-do, South Korea"
336,횡성대성병원,36.3043486,127.5700884,"10 Samyang-ro 8-gil, Okcheon-eup, Okcheon-gun, Chungcheongbuk-do, South Korea"
337,횡성군보건소,36.9288475,127.6889186,"South Korea, Chungcheongbuk-do, Eumseong-gun, Eumseong-eup, 중앙로 49"
338,괴산군보건소,36.9974781,127.598521,"205-1 Geumseog-ri, Geumwang-eup, Eumseong-gun, Chungcheongbuk-do, South Korea"
339,괴산성모병원,37.13841499999999,128.2062794,"57 Sungmun-ro, Myeong-dong, Jecheon-si, Chungcheongbuk-do, South Korea"
340,단양군보건소,37.1490245,128.2156933,"242 Uirim-daero, Cheongjeon-dong, Jecheon-si, Chungcheongbuk-do, South Korea"
341,단양군립노인요양병원,37.1633515,128.2339864,"South Korea, Chungcheongbuk-do, Jecheon-si, Naeto-ro, 991 KR"
342,(의료법인)정민의료재단 보은한양병원,36.77428099999999,127.5866828,"64-1 Bogeonbokji-ro, Jeungpyeong-eup, Jeungpyeong-gun, Chungcheongbuk-do, South Korea"
343,보은군보건소,36.8587915,127.4398077,"36 Jungangbuk-ro, Jincheon-eup, Jincheon-gun, Chungcheongbuk-do, South Korea"
344,영동병원,36.8605735,127.4396112,"11-8 Jungangbuk 1-gil, Jincheon-eup, Jincheon-gun, Chungcheongbuk-do, South Korea"
345,영동군보건소,36.5882132,127.5059447,"South Korea, Chungcheongbuk-do, Cheongwon-gun, Namil-myeon, 효촌리"
346,옥천성모병원,36.6196583,127.4963221,"125-5 Yeongun-dong, Sangdang-gu, Cheongju-si, Chungcheongbuk-do, South Korea"
347,옥천군보건소,36.6244364,127.4956402,"16 Soenae-ro, Geumcheon-dong, Sangdang-gu, Cheongju-si, Chungcheongbuk-do, South Korea"
348,음성군보건소,36.6375954,127.4702172,"227 Sajik-daero, 서원구 Cheongju-si, Chungcheongbuk-do, South Korea"
349,금왕태성병원,36.6401571,127.4731637,"48 Heungdeok-ro, Sajik 1(il)-dong, Seowon-gu, Cheongju-si, Chungcheongbuk-do, South Korea"
350,제천 서울병원,36.6736692,127.4857003,"South Korea, Chungcheongbuk-do, Cheongju-si, Sangdang-gu, Juseong-ro, 173-19"
351,제천시보건소,36.6300943,127.4265066,"46 Biha-ro 12beon-gil, Gangseo 1(il)-dong, Heungdeok-gu, Cheongju-si, Chungcheongbuk-do, South Korea"
352,명지병원(제천),36.6234909,127.4309797,"1262 2(i)sunhwan-ro, Gagyeong-dong, Heungdeok-gu, Cheongju-si, Chungcheongbuk-do, South Korea"
353,증평군보건소,37.498017,127.057186,"429 Dogok-ro, Daechi 4(sa)-dong, Gangnam-gu, Seoul, South Korea"
354,진천성모병원,37.0877491,127.9193363,"53-6 Minae-ri, Eomjeong-myeon, Chungju-si, Chungcheongbuk-do, South Korea"
355,진천군보건소,36.9650711,128.0025263,"447-10 Mokbeol-dong, Chungju-si, Chungcheongbuk-do, South Korea"
356,상당보건소,36.2730578,127.25009,"South Korea, Chungcheongnam-do, Gyeryong-si, Geumam-dong, 장안로 54"
357,의료법인 인화재단한국병원,36.4589918,127.1094561,"South Korea, Chungcheongnam-do, Gongju-si, Ungjin-dong, 무령로 77"
358,의료법인정산의료재단효성병원,36.4563591,127.1206645,"123 Bonghwang-ro, Banjuk-dong, Gongju-si, Chungcheongnam-do, South Korea"
359,서원보건소,36.1040281,127.4963441,"56-12 Jungdo-ri, Geumsan-eup, Geumsan-gun, Chungcheongnam-do, South Korea"
360,충청북도 청주의료원,36.1121092,127.4920434,"204-8 Jungdo-ri, Geumsan-eup, Geumsan-gun, Chungcheongnam-do, South Korea"
361,청주성모병원,36.1923478,127.0943895,"14 Simin-ro 294beon-gil, Chwiam-dong, Nonsan-si, Chungcheongnam-do, South Korea"
362,청원보건소,36.1964253,127.1041161,"382 Nonsan-daero, Gwanchok-dong, Nonsan-si, Chungcheongnam-do, South Korea"
363,흥덕보건소,36.9042958,126.6844291,"South Korea, Chungcheongnam-do, Dangjin-si, 시, Banchon-ro, 5-15 KR"
364,한마음의료재단 하나병원,36.8872782,126.6299943,"South Korea, Chungcheongnam-do, Dangjin-si, Dangjin 2(i)-dong, 서부로 56"
365,베스티안병원,36.3243793,126.6022626,"234 Boryeongnam-ro, Nampo-myeon, Boryeong-si, Chungcheongnam-do, South Korea"
366,충주시보건소,36.3809991,126.6227881,"136 Jukseong-ro, Daecheon -1(il)dong, Boryeong-si, Chungcheongnam-do, South Korea"
367,충청북도 충주의료원,36.27575410000001,126.9017177,"200 Gyebaek-ro, Buyeo-eup, Buyeo-gun, Chungcheongnam-do, South Korea"
368,건국대학교 충주병원,36.2829297,126.9095156,"205 Seongwang-ro, Buyeo-eup, Buyeo-gun, Chungcheongnam-do, South Korea"
369,계룡시보건소,36.7756106,126.4650989,"South Korea, Chungcheongnam-do, Seosan-si, 중앙로 149 KR"
370,충청남도공주의료원,36.774794,126.4443313,"6 Hosugongwon 6-ro, Buchun-dong, Seosan-si, Chungcheongnam-do, South Korea"
371,공주시 보건소,36.0846818,126.6876488,"289-1 Sagok-ri, Seocheon-eup, Seocheon-gun, Chungcheongnam-do, South Korea"
372,새금산병원,36.082321,126.689732,"26 Sagok-gil, Seocheon-eup, Seocheon-gun, Chungcheongnam-do, South Korea"
373,금산군보건소,36.7793814,127.0194596,"432-1 Mojong-dong, Asan-si, Chungcheongnam-do, South Korea"
374,백제종합병원,36.7827142,127.0145988,"20 Beonyeong-ro224beon-gil, Mojong-dong, Asan-si, Chungcheongnam-do, South Korea"
375,논산시보건소,37.6402518,127.0285046,"463-44 Beon-dong, Gangbuk-gu, Seoul, South Korea"
376,당진종합병원,36.6910697,126.8377044,"South Korea, Chungcheongnam-do, Yesan-gun, Yesan-eup, Sanseong-ri, 189-1번지 KR"
377,당진시보건소,36.6858341,126.84584,"23-1 Yesan-ri, Yesan-eup, Yesan-gun, Chungcheongnam-do, South Korea"
378,보령시보건소,36.8028806,127.1363643,"31 Suncheonhyang 6-gil, Bongmyeong-dong, Dongnam-gu, Cheonan-si, Chungcheongnam-do, South Korea"
379,보령아산병원,36.7972574,127.1311574,"542-3 Ssangyong-dong, Seobuk-gu, Cheonan-si, Chungcheongnam-do, South Korea"
380,건양대학교 부여병원,36.7941596,127.1266994,"394-9 Ssangyong 2(i)-dong, Seobuk-gu, Cheonan-si, Chungcheongnam-do, South Korea"
381,부여군보건소,36.7809987,127.1557911,"151 Cheongdang-dong, Dongnam-gu, Cheonan, Chungcheongnam-do, South Korea"
382,성요셉연합의원,36.4552502,126.8045446,"265 Eupnae-ri, Cheongyang-eup, Cheongyang-gun, Chungcheongnam-do, South Korea"
383,충청남도서산의료원,36.7519439,126.3229392,"698-6 Pyeongcheon-ri, Taean-eup, Taean-gun, Chungcheongnam-do, South Korea"
384,서산시보건소,36.5992891,126.674393,"224 Joyang-ro, Hongseong-eup, Hongseong-gun, Chungcheongnam-do, South Korea"
385,서해병원,36.5972582,126.6554441,"106 Munhwa-ro, Hongseong-eup, Hongseong-gun, Chungcheongnam-do, South Korea"
386,서천군보건소,35.4437586,126.6832489,"90 Jeonbongjun-ro, Gochang-eup, Gochang-gun, Jeollabuk-do, South Korea"
387,아산충무병원,35.4363986,126.6936092,"663 Eupnae-ri, Gochang-eup, 전라북도 Kochang, Jeollabuk-do, South Korea"
388,아산시보건소,35.9646648,126.7202154,"58 Susongdong-ro, Susong-dong, Gunsan-si, Jeollabuk-do, South Korea"
389,현대병원,35.954685,126.7124545,"27 Uiryowon-ro, Susong-dong, Gunsan-si, Jeollabuk-do, South Korea"
390,의료법인 예당의료재단 예산종합병원,35.9773651,126.7370947,"South Korea, Jeollabuk-do, Gunsan-si, Jochon-ro, 149 KR"
391,예산군보건소,35.8007471,126.8833041,"138 Seongsan-gil, Yochon-dong, Gimje-si, Jeollabuk-do, South Korea"
392,천안시 동남구보건소,35.4326296,127.4083857,"South Korea, Jeollabuk-do, Namwon-si, Gojuk-dong, 200 KR"
393,학교법인동은학원 순천향대학교 부속천안병원,35.3976924,127.3643521,"1285 Yocheon-ro, Josan-dong, Namwon-si, Jeollabuk-do, South Korea"
394,의료법인영서의료재단 천안충무병원,36.0057918,127.6716402,"413 Hanpungnu-ro, Muju-eup, Muju-gun, Jeollabuk-do, South Korea"
395,충청남도천안의료원(소아청소년과 없음),35.7227817,126.7355702,"124 Orijeong-ro, Buan-eup, Buan-gun, Jeollabuk-do, South Korea"
396,천안우리병원,35.724837,126.7345703,"24 Ojeong 2-gil, Buan-eup, Buan-gun, Jeollabuk-do, South Korea"
397,청양군보건의료원,35.3672114,127.1440253,"135 Gyoseong-ro, Sunchang-eup, Sunchang-gun, Jeollabuk-do, South Korea"
398,태안군보건의료원,35.9212295,127.0926561,"215-20 Sambong-ro, Samnye-eup, Wanju-gun, Jeollabuk-do, South Korea"
399,충청남도 홍성의료원,35.9616826,126.9664723,"969 Muwang-ro, Sin-dong, Iksan, Jeollabuk-do, South Korea"
400,홍성군보건소,35.9616472,126.9665674,"975 Muwang-ro, Sin-dong, Iksan, Jeollabuk-do, South Korea"
401,고창군보건소,35.6545534,127.519664,"425 Jangsu-ri, Jangsu-eup, Jangsu-gun, Jeollabuk-do, South Korea"
402,(의)석천재단고창병원,37.5786343,127.002953,"86 Daehak-ro, Ihwa-dong, Jongno-gu, Seoul, South Korea"
403,군산시보건소,35.8150738,127.1248037,"13 Handupyeong 3-gil, Junghwasan 1(il)-dong, Wansan-gu, Jeonju-si, Jeollabuk-do, South Korea"
404,군산의료원,35.815411,127.1426852,"33 Jeonragamyeong-ro, Jungangdong 4(sa)-ga, Jeonju-si, Jeollabuk-do, South Korea"
405,동군산병원,35.5889362,126.8239387,"606-22 Chungjeong-ro, Yonggye-dong, Jeongeup-si, Jeollabuk-do, South Korea"
406,김제시보건소,35.57796769999999,126.8545348,"61 Suseong 1-ro, Suseong-dong, Jeongeup-si, Jeollabuk-do, South Korea"
407,남원의료원,35.7955794,127.4339163,"1189 Jinmu-ro, Jinan-eup, Jinan-gun, Jeollabuk-do, South Korea"
408,남원시보건소,34.6366874,126.7580116,"305-26 Seoseong-ri, Gangjin-eup, Gangjin-gun, Jeollanam-do, South Korea"
409,무주군보건의료원,34.638106,126.7754545,"11 Mongni-gil, Gangjin-eup, Gangjin-gun, Jeollanam-do, South Korea"
410,부안군보건소,34.6210334,127.2941006,"1935 Goheung-ro, Goheung-eup, Goheung-gun, Jeollanam-do, South Korea"
411,부안성모병원,34.5924252,127.2686037,"5 Deungam 3-gil, 고흥읍 Goheung-gun, Jeollanam-do, South Korea"
412,순창군보건의료원,34.5465248,127.1457469,"215 Chagyeonggureongmok-gil, Doyang-eup, Goheung-gun, Jeollanam-do, South Korea"
413,완주군보건소,35.2762315,127.2879463,"South Korea, Jeollanam-do, Gokseong-gun, Gokseong-eup, Gokseong-ro, 761 KR"
414,익산병원,35.279113,127.2972901,"220 Eupnae-ri, Gokseong-eup, Gokseong-gun, Jeollanam-do, South Korea"
415,익산시보건소,34.936145,127.696966,"South Korea, 대한민국 전라남도 광양시 중동 1639-2"
416,임실군보건의료원,34.980968,127.5836199,"1100 Indeok-ro, Gwangyang-eup, Gwangyang-si, Jeollanam-do, South Korea"
417,장수군보건의료원,35.215814,127.4638298,"1433-1 Bongbuk-ri, Gurye-eup, Gurye-gun, Jeollanam-do, South Korea"
418,예수병원,35.216049,127.4610421,"30 Dongpyeonje-gil, Gurye-eup, Gurye-gun, Jeollanam-do, South Korea"
419,대자인병원,35.0366967,126.7215888,"5419 Yeongsan-ro, Seongbuk-dong, Naju-si, Jeollanam-do, South Korea"
420,전주병원,34.9951459,126.7081466,"57-32 Pungmulsijang 2-gil, Ichang-dong, Naju-si, Jeollanam-do, South Korea"
421,전주시보건소(덕진진료실),35.3151361,126.9821396,"182-1 Cheonbyeon-ri, Damyang-eup, Damyang-gun, Jeollanam-do, South Korea"
422,호성전주병원,35.3249723,126.9812792,"10-11 Wandong-gil, Damyang-eup, Damyang-gun, Jeollanam-do, South Korea"
423,정읍아산병원,34.8094131,126.4164009,"South Korea, Jeollanam-do, Mokpo-si, Sang-dong, 149-2"
424,정읍시보건소,34.8044415,126.4205118,"303 Baengnyeon-daero, Sang-dong, Mokpo-si, Jeollanam-do, South Korea"
425,진안군보건소,34.821301,126.421011,"623 Yeongsan-ro, Sang-dong, Mokpo-si, Jeollanam-do, South Korea"
426,진안군의료원,34.8039025,126.4054617,"Iro-ro, Yonghae-dong, Mokpo-si, Jeollanam-do, South Korea"
427,강진의료원,34.8170249,126.3802509,"Yeonsan-dong, Mokpo-si, Jeollanam-do, South Korea"
428,강진군보건소,34.8103407,126.3757843,"724 Goha-daero, Sanjeong-dong, Mokpo-si, Jeollanam-do, South Korea"
429,고흥종합병원,34.8041075,126.3736551,"1676 Sanjeong-dong, Mokpo-si, Jeollanam-do, South Korea"
430,고흥군보건소,34.9914382,126.4891531,"South Korea, Jeollanam-do, Muan-gun, Muan-eup, Seongdong-ri, 165 무안읍 성동리 165번지 무안군 전라남도 KR 58532"
431,녹동현대병원,34.9901427,126.4808627,"530 Muan-ro, Muan-eup, Muan-gun, Jeollanam-do, South Korea"
432,곡성사랑병원,34.7764284,127.1038924,"768 Banryong-ri, Miryeok-myeon, Boseong-gun, Jeollanam-do, South Korea"
433,곡성군보건의료원,34.7703313,127.0791759,"153 Songjae-ro, Boseong-eup, Boseong-gun, Jeollanam-do, South Korea"
434,광양사랑병원,34.8337591,127.3459238,"292 Jangjwa-ri, Beolgyo-eup, Boseong-gun, Jeollanam-do, South Korea"
435,광양시보건소,34.9667843,127.4859789,"South Korea, Jeollanam-do, Suncheon-si, Seokhyeon-dong, 중앙로 232"
436,구례병원,34.9638379,127.5426325,"221 Sungwang-ro, Haeryong-myeon, Suncheon-si, Jeollanam-do, South Korea"
437,구례군보건의료원,34.9578856,127.4833799,"2 Seomunseongteo-gil, Maegok-dong, Suncheon-si, Jeollanam-do, South Korea"
438,나주종합병원,34.8335723,126.3525474,"1004 Cheonsa-ro, 해리 압 Sinan-gun, Jeollanam-do, South Korea"
439,나주시보건소,34.7222675,125.9328017,"57-1 Sudae-ri, Bigeum-myeon, Sinan-gun, Jeollanam-do, South Korea"
440,담양사랑병원,34.7690776,127.6542576,"95 Museon-ro, Yeocheon-dong, Yeosu-si, Jeollanam-do, South Korea"
441,담양군보건소,34.7593666,127.6606341,"213 Hak-dong, Yeosu-si, Jeollanam-do, South Korea"
442,목포한국병원,34.7447253,127.7280156,"49 Jwasuyeong-ro, Gwangmu-dong, Yeosu-si, Jeollanam-do, South Korea"
443,목포기독병원,34.7612949,127.6751725,"75-10 Singi-dong, Yeosu-si, Jeollanam-do, South Korea"
444,목포중앙병원,34.7659392,127.6635346,"70 Ssangbong-ro, Hak-dong, Yeosu-si, Jeollanam-do, South Korea"
445,목포시의료원,35.2844869,126.4989822,"South Korea, Jeollanam-do, Yeonggwang-gun, Yeonggwang-eup, 와룡로 3"
446,세안종합병원,35.2749984,126.5110264,"212 Namcheon-ri, Yeonggwang-eup, Yeonggwang-gun, Jeollanam-do, South Korea"
447,전남중앙병원,35.2744703,126.5042146,"17 Sinnam-ro 4-gil, Yeonggwang-eup, Yeonggwang-gun, Jeollanam-do, South Korea"
448,목포시보건소,34.794203,126.7008893,"169 Nampung-ri, Yeongam-eup, Yeongam-gun, Jeollanam-do, South Korea"
449,대송의료재단 무안병원,34.7955306,126.704013,"39 Orijeong-gil, Yeongam-eup, Yeongam-gun, Jeollanam-do, South Korea"
450,무안군보건소,34.3170598,126.7357121,"56 Gayong-ri, Wando-eup, Wando-gun, Jeollanam-do, South Korea"
451,보성아산병원,34.3363076,126.7312993,"34 Nonggongdanji-gil, Wando-eup, Wando-gun, Jeollanam-do, South Korea"
452,보성군보건소,35.2976906,126.7745918,"99-1 Gisan-ri, Jangseong-eup, Jangseong-gun, Jeollanam-do, South Korea"
453,벌교삼호병원,35.3045128,126.7825232,"13 Cheongun 11-gil, Jangseong-eup, Jangseong-gun, Jeollanam-do, South Korea"
454,순천시보건소,34.6771036,126.9109408,"383-5 Geonsan-ri, Jangheung-eup, Jangheung-gun, Jeollanam-do, South Korea"
455,순천 성가롤로병원,34.676326,126.908469,"49 Heungseong-ro, Jangheung-eup, Jangheung-gun, Jeollanam-do, South Korea"
456,순천의료원,34.4823939,126.2641731,"523-1 Namdong-ri, Jindo-eup, Jindo-gun, Jeollanam-do, South Korea"
457,신안군보건소,34.48033849999999,126.262951,"40-9 Nam-dong 1-gil, Jindo-eup, Jindo-gun, Jeollanam-do, South Korea"
458,신안대우병원,35.0618848,126.5200239,"168-1 Naegyo-ri, Hampyeong-eup, Hampyeong-gun, Jeollanam-do, South Korea"
459,여천전남병원,35.0623848,126.524329,"South Korea, Jeollanam-do, Hampyeong-gun, Hampyeong-eup, 중앙길 54-8"
460,여수시보건소,34.5716667,126.6128048,"182-1 Hae-ri, Haenam-eup, Haenam-gun, Jeollanam-do, South Korea"
461,여수전남병원,34.5834271,126.6459248,"597 Haenam-ro, Okcheon-myeon, Haenam-gun, Jeollanam-do, South Korea"
462,여수한국병원,34.5705254,126.6122777,"46 Haenam-ro, Haenam-eup, Haenam-gun, Jeollanam-do, South Korea"
463,여수제일병원,35.0593098,127.0026172,"322 Seoyang-ro, Hwasun-eup, Hwasun-gun, Jeollanam-do, South Korea"
464,영광종합병원,35.0574208,126.9823136,"62 Ssangchung-ro, Hwasun-eup, Hwasun-gun, Jeollanam-do, South Korea"
465,영광기독병원,35.8261202,128.7374109,"South Korea, Gyeongsangbuk-do, Gyeongsan-si, Gyeongan-ro, 208 KR"
466,영광군보건소,35.8089731,128.7402666,"7-1 Baekcheon-dong, Gyeongsan-si, Gyeongsangbuk-do, South Korea"
467,영암병원,35.8249965,128.7433235,"158 Nammae-ro, Jungbang-dong, Gyeongsan-si, Gyeongsangbuk-do, South Korea"
468,영암군보건소,35.859504,129.224608,"300 Yangjeong-ro, Dongcheon-dong, Gyeongju-si, Gyeongsangbuk-do, South Korea"
469,완도대성병원,35.7251915,128.2648663,"56-5 Wangneung-ro, Goryeong-eup, Goryeong-gun, Gyeongsangbuk-do, South Korea"
470,완도군보건의료원,35.7301689,128.2722574,"201-6 Heonmun-ri, Goryeong-eup, Goryeong-gun, Gyeongsangbuk-do, South Korea"
471,장성병원,36.1029065,128.3827401,"250 Gongdan 2(i)-dong, Gumi-si, Gyeongsangbuk-do, South Korea"
472,장성군보건소,36.11445750000001,128.3406014,"12 Sinsi-ro 10-gil, Hyeonggok-dong, Gumi-si, Gyeongsangbuk-do, South Korea"
473,장흥종합병원,36.1399268,128.3459335,"111 Seonsan-daero, Jisan-dong, Gumi-si, Gyeongsangbuk-do, South Korea"
474,장흥군보건소,36.2296983,128.5695775,"200 Guncheong-ro, Gunwi-eup, Gunwi-gun, Gyeongsangbuk-do, South Korea"
475,진도한국병원,36.1226535,128.126461,"24 Moam-gil, Jasan-dong, Gimcheon-si, Gyeongsangbuk-do, South Korea"
476,진도군보건소,36.1353954,128.1187608,"South Korea, Gyeongsangbuk-do, Gimcheon-si, Sineum 1-gil, 12 KR"
477,함평성심병원,36.1395043,128.1128698,"221 Sicheong 1(il)-gil, Daesin-dong, Gimcheon-si, Gyeongsangbuk-do, South Korea"
478,함평군보건소,36.5843705,128.189297,"188 Mojeon-dong, Mungyeong-si, Gyeongsangbuk-do, South Korea"
479,해남종합병원,36.5959632,128.1990696,"South Korea, Gyeongsangbuk-do, Mungyeong-si, Jeomchon-dong, 246-14"
480,해남우리종합병원,36.5962304,128.1975181,"9 Jeomchon 1(il)-gil, Jeomchon 1(il)-dong, Mungyeong-si, Gyeongsangbuk-do, South Korea"
481,해남군보건소,36.8905074,128.7421216,"1203 Bonghwa-ro, Bonghwa-eup, Bonghwa-gun, Gyeongsangbuk-do, South Korea"
482,화순전남대학교병원,36.891621,128.733393,"3 Bomit-gil, Bonghwa-eup, Bonghwa-gun, Gyeongsangbuk-do, South Korea"
483,화순군보건소,36.420347,128.15975,"9 Naengnimseoseong-gil, Gyerim-dong, Sangju-si, Gyeongsangbuk-do, South Korea"
484,세명병원,36.4166382,128.150525,"South Korea, Gyeongsangbuk-do, Sangju-si, Muyang-dong, 중앙로 111"
485,경산중앙병원,36.4147808,128.1555524,"South Korea, Gyeongsangbuk-do, Sangju-si, Sangseomun-ro, 53 KR"
486,경산시 보건소,35.9170634,128.2790294,"12 Seongbaksup-gil, Seongju-eup, Seongju-gun, Gyeongsangbuk-do, South Korea"
487,경주시 보건소,36.5670215,128.7303015,"165 Seodongmun-ro, Bungmun-dong, Andong, Gyeongsangbuk-do, South Korea"
488,고령군보건소,36.5471287,128.7008506,"11 Angsil-ro, Gangnam-dong, Andong, Gyeongsangbuk-do, South Korea"
489,고령영생병원,36.5671604,128.72283,"99 Seodongmun-ro, Geumgok-dong, Andong, Gyeongsangbuk-do, South Korea"
490,구미순천향병원,36.5245952,129.4024056,"133-3 Seongnae-ri, Yeonghae-myeon, Yeongdeok-gun, Gyeongsangbuk-do, South Korea"
491,구미차병원,36.4181628,129.3676621,"8367 Gyeongdong-ro, Yeongdeok-eup, Yeongdeok-gun, Gyeongsangbuk-do, South Korea"
492,구미시 구미보건소,36.8060741,128.6217215,"19 Sicheong-ro 1beon-gil, Hyucheon-dong, Yeongju-si, Gyeongsangbuk-do, South Korea"
493,군위군보건소,36.8252312,128.604632,"327 Daehak-ro, Gaheung-dong, Yeongju-si, Gyeongsangbuk-do, South Korea"
494,김천의료원,35.9573481,128.9131906,"307 Osu-dong, Yeongcheon-si, Gyeongsangbuk-do, South Korea"
495,김천제일병원,35.9686165,128.9324335,"31 Yetguncheong 1(il)-gil, Jungang-dong, Yeongcheon-si, Gyeongsangbuk-do, South Korea"
496,김천시 보건소,36.6576904,128.4529668,"33 Guncheong-gil, Yecheon-eup, Yecheon-gun, Gyeongsangbuk-do, South Korea"
497,김천소년교도소 부속의원,36.6577554,128.4592068,"460 Dongbon-ri, Yecheon-eup, Yecheon-gun, Gyeongsangbuk-do, South Korea"
498,문경제일병원,37.4859307,130.8995555,"South Korea, Gyeongsangbuk-do, Ulleung-gun, Ulleung-eup, Ulleungsunhwan-ro, 396-18"
499,문경중앙병원,36.9934071,129.409681,"71 Hyeonnaehang-gil, Uljin-eup, Uljin-gun, Gyeongsangbuk-do, South Korea"
500,문경시 보건소,36.3458253,128.6973944,"228 Gubong-gil, Uiseong-eup, Uiseong-gun, Gyeongsangbuk-do, South Korea"
501,봉화군 보건소,36.3542965,128.6951165,"482-1 Hujuk-ri, Uiseong-eup, Uiseong-gun, Gyeongsangbuk-do, South Korea"
502,봉화해성병원,35.6485205,128.7372714,"96 Beomgok-ri, Hwayang-eup, Cheongdo-gun, Gyeongsangbuk-do, South Korea"
503,상주성모병원,36.4310163,129.0527471,"19 Uiryowon-gil, 청송읍 Cheongsong-gun, Gyeongsangbuk-do, South Korea"
504,상주시 보건소,36.5515518,129.0562968,"산3번지 Gwangdeok-ri, Jinbo-myeon, Cheongsong-gun, Gyeongsangbuk-do, South Korea"
505,상주 적십자병원,36.070704,129.380477,"98 Samheung-ro, Jangseong-dong, Buk-gu, Pohang-si, Gyeongsangbuk-do, South Korea"
506,성주군보건소 ,35.9924364,129.3962274,"6119 Donghaean-ro, Jeomchon 4(sa)-dong, Nam-gu, Pohang-si, Gyeongsangbuk-do, South Korea"
507,안동시보건소,36.0178216,129.362091,"94-5 Daedo-dong, Nam-gu, Pohang-si, Gyeongsangbuk-do, South Korea"
508,안동병원,36.0157881,129.3398217,"17 Daejamdong-gil, Daejam-dong, Nam-gu, Pohang-si, Gyeongsangbuk-do, South Korea"
509,안동성소병원 ,34.8726323,128.6268045,"943-5 Sang-dong, Geoje-si, Gyeongsangnam-do, South Korea"
510,영덕아산병원 ,34.8719625,128.7221814,"16 Dumo-gil, Jangseungpo-dong, Geoje-si, Gyeongsangnam-do, South Korea"
511,영덕군보건소,34.8918582,128.6367458,"506 Suyang-ro, Yangjeong-dong, Geoje-si, Gyeongsangnam-do, South Korea"
512,영양군보건소,34.898025,128.6433852,"Yeoncho-myeon, Geoje-si, South Korea"
513,영주시보건소,35.6865089,127.9091208,"74-1 Sangrim-ri, Geochang-eup, Geochang-gun, Gyeongsangnam-do, South Korea"
514,영주적십자병원,35.6822617,127.9101795,"21 Songjeong-ri, Geochang-eup, Geochang-gun, Gyeongsangnam-do, South Korea"
515,영남대학교 영천병원 ,38.3772967,128.4721882,"30 Suseong-ro, Ganseong-eup, Goseong-gun, Gangwon-do, South Korea"
516,영천시 보건소,35.2307919,128.8574755,"94-8 Bunseong-ro, Oe-dong, Gimhae-si, Gyeongsangnam-do, South Korea"
517,예천군보건소,35.2623034,128.8615992,"1814-37 Gimhae-daero, Bukbu-dong, Gimhae-si, Gyeongsangnam-do, South Korea"
518,예천권병원,35.208685,128.8056382,"167-13 Jangyu-ro, Jangyu-myeon, Gimhae-si, Gyeongsangnam-do, South Korea"
519,울릉군보건의료원,35.2322489,128.8708565,"227 Bunseong-ro, Oe-dong, Gimhae-si, Gyeongsangnam-do, South Korea"
520,울진군의료원 ,34.846164,127.8943923,"South Korea, Gyeongsangnam-do, Namhae-gun, Namhae-eup, Asan-ri, 170 남해읍 아산리 170번지 남해군 경상남도 KR 52417"
521,의성군보건소,34.8449367,127.8986816,"6 Seonso-ro, Namhae-eup, Namhae-gun, Gyeongsangnam-do, South Korea"
522,공생병원,35.4857068,128.7560519,"South Korea, Gyeongsangnam-do, Miryang-si, Sammun-dong, 159-1"
523,청도군보건소(치매안심센터),34.9329601,128.080076,"69-2 Donggeum-dong, Sacheon-si, Gyeongsangnam-do, South Korea"
524,청송군보건의료원,35.0044458,128.0641297,"501 Deokgok-ri, Yonghyeon-myeon, Sacheon-si, Gyeongsangnam-do, South Korea"
525,경북북부제2교도소 부속의원,37.5621684,126.9990188,"South Korea, Seoul, Jung-gu, 서애로1길 17"
526,칠곡군보건소,35.4159494,127.8840248,"중앙로 97 Sancheong-eup, Sancheong-gun, Gyeongsangnam-do, South Korea"
527,포항시 북구보건소,35.3279524,129.0046163,"1057-2 Beomeo-ri, Mulgeum-eup, Yangsan-si, Gyeongsangnam-do, South Korea"
528,포항시 남구보건소,37.2558958,127.0747189,"958-1 Yeongtong-dong, Yeongtong-gu, Suwon-si, Gyeonggi-do, South Korea"
529,포항세명 기독병원,35.4063743,129.1645487,"774-6 Myeong-dong, Yangsan-si, Gyeongsangnam-do, South Korea"
530,포항 성모병원,35.3357612,129.0250101,"169 Samnyang-ro, Yangju-dong, Yangsan-si, Gyeongsangnam-do, South Korea"
531,의료법인 거붕백병원,35.3185147,128.2587943,"10 Uibyeong-ro 14-gil, Uiryeong-eup, Uiryeong-gun, Gyeongsangnam-do, South Korea"
532,의료법인 대우병원,35.3176426,128.2546996,"South Korea, Gyeongsangnam-do, Uiryeong-gun, Uiryeong-eup, Uibyeong-ro 8-gil, 16 KR"
533,거제시 보건소,35.1794205,128.0904334,"885 Jinju-daero, Gangnam-dong, Jinju-si, Gyeongsangnam-do, South Korea"
534,맑은샘병원,35.1784535,128.0920114,"485-2 Chiram-dong, Jinju-si, Gyeongsangnam-do, South Korea"
535,거창적십자병원,35.1917852,128.0882337,"100-10 Jangdae-dong, Jinju-si, Gyeongsangnam-do, South Korea"
536,거창군 보건소,35.1854612,128.0693129,"370 Jinnyangho-ro, Sinan-dong, Jinju-si, Gyeongsangnam-do, South Korea"
537,고성군 보건소,35.1744521,128.0929982,"829 Jinju-daero, Juyak-dong, Jinju-si, Gyeongsangnam-do, South Korea"
538,김해중앙병원,35.1670161,128.1287109,"South Korea, Gyeongsangnam-do, Jinju-si, Beomgol-ro, 17 KR"
539,조은금강병원,35.2147038,128.1230134,"348-2 Chojeon-dong, Jinju-si, Gyeongsangnam-do, South Korea"
540,갑을장유병원,35.5421395,128.4933873,"2 Gyori 1(il)-gil, Changnyeong-eup, Changnyeong-gun, Gyeongsangnam-do, South Korea"
541,김해시 보건소,35.5436522,128.4900857,"1189-35 Upo 2(i)-ro, Changnyeong-eup, Changnyeong-gun, Gyeongsangnam-do, South Korea"
542,의료법인이도의료 재단 남해병원,37.5276788,126.9991908,"260-12 Bogwang-dong, Yongsan-gu, Seoul, South Korea"
543,남해군 보건소,35.1824015,128.5629166,"15 Woryeongdongbuk-ro, Haeun-dong, Masan, Gyeongsangnam-do, South Korea"
544,밀양 윤병원,35.1348031,128.7104824,"1 Pungho-dong, Jinhae-gu, Gyeongsangnam-do, South Korea"
545,밀양시 보건소,37.5109909,127.0231613,"7 Hakdong-ro 4-gil, Nonhyeon-dong, Gangnam-gu, Seoul, South Korea"
546,삼천포서울병원,35.1496616,128.6611255,"6 Jungang-dong, Jinhae-gu, Gyeongsangnam-do, South Korea"
547,사천시 보건소,35.2428993,128.5919073,"South Korea, Gyeongsangnam-do, 창원시 마산회원구 Paryong-ro, 158 KR"
548,의료법인승연의료재단 제일병원,35.1988193,128.566493,"231 3·15-Daero, Wanwol-dong, 마산합포구 창원시 Gyeongsangnam-do, South Korea"
549,산청군보건의료원,35.1987691,128.7081267,"South Korea, Gyeongsangnam-do, 창원시 성산구 Seongju-dong, 삼정자로 11"
550,양산부산대학교병원,35.2210172,128.6873089,"South Korea, Gyeongsangnam-do, 창원시 성산구 Woni-daero 682beon-gil, 21 KR"
551,베데스다 병원,35.2372495,128.6459154,"45 Changi-daero, Myeongseo-dong, Uichang-gu, Gyeongsangnam-do, South Korea"
552,웅상중앙병원,34.8424784,128.4200383,"South Korea, Gyeongsangnam-do, Tongyeong-si, Seoho-dong, 163-22"
553,양산시 보건소,34.8598583,128.4320436,"401-1 Mujeon-dong, Tongyeong-si, Gyeongsangnam-do, South Korea"
554,의령병원,35.0829984,127.7387869,"39 Hwasim-gil, Hadong-eup, Hadong-gun, Gyeongsangnam-do, South Korea"
555,의령군 보건소,35.0667069,127.7529878,"149-1 Eupnae-ri, Hadong-eup, Hadong-gun, Gyeongsangnam-do, South Korea"
556,진주제일병원,37.5633388,127.058597,"South Korea, Seoul, Dongdaemun-gu, Jangan-dong, 413-1"
557,진주고려병원,35.275719,128.4103205,"100 Malsan-ri, Gaya-eup, Haman-gun, Gyeongsangnam-do, South Korea"
558,진주반도병원,35.5204893,127.7292535,"70 Goun-ro, Hamyang-eup, Hamyang-gun, Gyeongsangnam-do, South Korea"
559,진주복음병원,35.5196461,127.7318095,"630-3 Yongpyeong-ri, Hamyang-eup, Hamyang-gun, Gyeongsangnam-do, South Korea"
560,진주세란병원,35.5680195,128.1565505,"524-1 Hapcheon-ri, Hapcheon-eup, Hapcheon-gun, Gyeongsangnam-do, South Korea"
561,진주한일병원,33.254995,126.5647515,"47 Jangsu-ro, Donghong-dong, Seogwipo-si, Jeju-do, South Korea"
562,진주시 보건소,33.2544248,126.5654129,"8638 Iljudong-ro, Donghong-dong, Seogwipo-si, Jeju-do, South Korea"
563,태황의료재단 한성병원,33.4899863,126.4850919,"65 Doryeong-ro, Yeon-dong, Jeju-si, Jeju-do, South Korea"
564,창녕군 보건소,37.542788,126.9496075,"South Korea, Seoul, Mapo-gu, 도화동 17-22번지"
565,창원시 창원보건소,37.483879,127.01969,"1427-6 Seocho-dong, Seocho-gu, Seoul, South Korea"
